NORAD_CAT_ID,OBJECT_NAME,OBJECT_TYPE,EPOCH,MEAN_MOTION,ECCENTRICITY,INCLINATION,RA_OF_ASC_NODE,ARG_OF_PERICENTER,MEAN_ANOMALY,BSTAR,MEAN_MOTION_DOT,MEAN_MOTION_DDOT,TLE_LINE0,TLE_LINE1,TLE_LINE2,SEMIMAJOR_AXIS,PERIOD,APOGEE,PERIGEE,DECAYED
53170.0,STARLINK-4095,PAYLOAD,2022-12-22 09:54:08,15.08847367,0.000263,53.2189,26.1636,27.6532,332.46,2.4967e-05,1.09e-06,0.0,0 STARLINK-4095,1 53170U 22083AQ  22356.41259430  .00000109  00000-0  24967-4 0  9999,2 53170  53.2189  26.1636 0002630  27.6532 332.4600 15.08847367 24302,6917.858,95.437,541.5419999999998,537.903,0.0
53170.0,STARLINK-4095,PAYLOAD,2022-12-23 01:48:00,15.08831532,0.0002568,53.2198,23.1902,30.0334,330.0805,2.7114e-05,1.43e-06,0.0,0 STARLINK-4095,1 53170U 22083AQ  22357.07500517  .00000143  00000-0  27114-4 0  9992,2 53170  53.2198  23.1902 0002568  30.0334 330.0805 15.08831532 25032,6917.906,95.438,541.548,537.995,0.0
53170.0,STARLINK-4095,PAYLOAD,2022-12-23 08:09:33,15.08826758,0.0002725,53.22,22.0012,31.0795,329.0358,5.8155e-05,6.37e-06,0.0,0 STARLINK-4095,1 53170U 22083AQ  22357.33996865  .00000637  00000-0  58155-4 0  9993,2 53170  53.2200  22.0012 0002725  31.0795 329.0358 15.08826758 24442,6917.920999999999,95.438,541.6709999999998,537.901,0.0
53170.0,STARLINK-4095,PAYLOAD,2022-12-23 19:17:15,15.08833462,0.0002616,53.2197,19.9185,31.7688,328.3462,7.3165e-05,8.76e-06,0.0,0 STARLINK-4095,1 53170U 22083AQ  22357.80364614  .00000876  00000-0  73165-4 0  9999,2 53170  53.2197  19.9185 0002616  31.7688 328.3462 15.08833462 24516,6917.9,95.438,541.575,537.956,0.0
53170.0,STARLINK-4095,PAYLOAD,2022-12-24 11:11:05,15.08850896,0.0002532,53.2194,16.9441,39.7036,320.4141,-1.3293e-05,-5e-06,0.0,0 STARLINK-4095,1 53170U 22083AQ  22358.46603685 -.00000500  00000-0 -13293-4 0  9998,2 53170  53.2194  16.9441 0002532  39.7036 320.4141 15.08850896 25245,6917.847,95.437,541.464,537.96,0.0
53170.0,STARLINK-4095,PAYLOAD,2022-12-25 01:29:34,15.08833056,0.0002867,53.2195,14.27,27.9788,332.1357,4.2972e-05,3.95e-06,0.0,0 STARLINK-4095,1 53170U 22083AQ  22359.06220533  .00000395  00000-0  42972-4 0  9998,2 53170  53.2195  14.2700 0002867  27.9788 332.1357 15.08833056 25337,6917.901999999999,95.438,541.75,537.783,0.0
53170.0,STARLINK-4095,PAYLOAD,2022-12-25 07:51:06,15.08837167,0.0002586,53.2181,13.0787,29.9097,330.2043,5.4148e-05,5.73e-06,0.0,0 STARLINK-4095,1 53170U 22083AQ  22359.32716228  .00000573  00000-0  54148-4 0  9994,2 53170  53.2181  13.0787 0002586  29.9097 330.2043 15.08837167 24749,6917.889,95.438,541.543,537.965,0.0
53170.0,STARLINK-4095,PAYLOAD,2022-12-26 01:20:22,15.08833811,0.0002579,53.2194,9.8082,30.9663,329.1481,-0.00012196,-2.229e-05,0.0,0 STARLINK-4095,1 53170U 22083AQ  22360.05581258 -.00002229  00000-0 -12196-3 0  9997,2 53170  53.2194   9.8082 0002579  30.9663 329.1481 15.08833811 24854,6917.899,95.438,541.548,537.98,0.0
53170.0,STARLINK-4095,PAYLOAD,2022-12-26 06:06:31,15.08841312,0.0002856,53.219,8.9183,30.2627,329.853,-3.8623e-05,-9.03e-06,0.0,0 STARLINK-4095,1 53170U 22083AQ  22360.25452600 -.00000903  00000-0 -38623-4 0  9998,2 53170  53.2190   8.9183 0002856  30.2627 329.8530 15.08841312 25514,6917.876,95.437,541.717,537.766,0.0
53170.0,STARLINK-4095,PAYLOAD,2022-12-26 07:41:54,15.0884128,0.0002837,53.2193,8.6201,32.8992,327.2177,5.3924e-06,-2.03e-06,0.0,0 STARLINK-4095,1 53170U 22083AQ  22360.32076419 -.00000203  00000-0  53924-5 0  9990,2 53170  53.2193   8.6201 0002837  32.8992 327.2177 15.08841280 24890,6917.876,95.437,541.7040000000002,537.779,0.0
53170.0,STARLINK-4095,PAYLOAD,2022-12-27 07:32:40,15.08846662,0.0002666,53.2207,4.1626,38.9087,321.2097,8.231200000000001e-05,1.022e-05,0.0,0 STARLINK-4095,1 53170U 22083AQ  22361.31435874  .00001022  00000-0  82312-4 0  9995,2 53170  53.2207   4.1626 0002666  38.9087 321.2097 15.08846662 25671,6917.86,95.437,541.569,537.881,0.0
53170.0,STARLINK-4095,PAYLOAD,2022-12-28 01:01:54,15.08850441,0.0002705,53.2203,0.8911,37.4367,322.6813,7.7886e-05,9.52e-06,0.0,0 STARLINK-4095,1 53170U 22083AQ  22362.04299394  .00000952  00000-0  77886-4 0  9992,2 53170  53.2203   0.8911 0002705  37.4367 322.6813 15.08850441 25150,6917.848000000001,95.437,541.585,537.842,0.0
53170.0,STARLINK-4095,PAYLOAD,2022-12-29 00:52:43,15.08832793,0.0002657,53.2196,356.4295,36.9576,323.1599,-0.000159,-2.818e-05,0.0,0 STARLINK-4095,1 53170U 22083AQ  22363.03661633 -.00002818  00000-0 -15900-3 0  9994,2 53170  53.2196 356.4295 0002657  36.9576 323.1599 15.08832793 25931,6917.901999999999,95.438,541.606,537.929,0.0
53170.0,STARLINK-4095,PAYLOAD,2022-12-29 08:49:39,15.0883089,0.0002582,53.2203,354.9436,42.5162,317.6029,-0.00015974,-2.829e-05,0.0,0 STARLINK-4095,1 53170U 22083AQ  22363.36781883 -.00002829  00000-0 -15974-3 0  9993,2 53170  53.2203 354.9436 0002582  42.5162 317.6029 15.08830890 25359,6917.908,95.438,541.559,537.987,0.0
53170.0,STARLINK-4095,PAYLOAD,2022-12-30 08:40:26,15.08843798,0.00027,53.2184,350.4798,34.5094,325.6073,-6.8997e-05,-1.387e-05,0.0,0 STARLINK-4095,1 53170U 22083AQ  22364.36141217 -.00001387  00000-0 -68997-4 0  9997,2 53170  53.2184 350.4798 0002700  34.5094 325.6073 15.08843798 26132,6917.869000000002,95.437,541.602,537.866,0.0
53170.0,STARLINK-4095,PAYLOAD,2022-12-31 08:31:12,15.0884113,0.0002657,53.2188,346.0212,31.2566,328.8583,0.00014639,2.042e-05,0.0,0 STARLINK-4095,1 53170U 22083AQ  22365.35500638  .00002042  00000-0  14639-3 0  9993,2 53170  53.2188 346.0212 0002657  31.2566 328.8583 15.08841130 25652,6917.877,95.437,541.58,537.904,0.0
53170.0,STARLINK-4095,PAYLOAD,2023-01-01 05:11:14,15.08831524,0.0002698,53.2182,342.1551,30.9959,329.1192,-7.7456e-06,-4.12e-06,0.0,0 STARLINK-4095,1 53170U 22083AQ  23001.21614020 -.00000412  00000-0 -77456-5 0  9996,2 53170  53.2182 342.1551 0002698  30.9959 329.1192 15.08831524 26417,6917.906,95.438,541.638,537.905,0.0
53170.0,STARLINK-4095,PAYLOAD,2023-01-01 08:22:00,15.08833407,0.0002716,53.2183,341.5598,32.6277,327.4882,-2.436400000000001e-05,-6.76e-06,0.0,0 STARLINK-4095,1 53170U 22083AQ  23001.34862012 -.00000676  00000-0 -24364-4 0  9997,2 53170  53.2183 341.5598 0002716  32.6277 327.4882 15.08833407 25806,6917.901,95.438,541.644,537.887,0.0
53170.0,STARLINK-4095,PAYLOAD,2023-01-02 05:02:00,15.08846289,0.0002683,53.2187,337.6937,32.201,327.9145,-4.0529e-05,-9.34e-06,0.0,0 STARLINK-4095,1 53170U 22083AQ  23002.20973119 -.00000934  00000-0 -40529-4 0  9992,2 53170  53.2187 337.6937 0002683  32.2010 327.9145 15.08846289 26560,6917.861,95.437,541.582,537.87,0.0
53170.0,STARLINK-4095,PAYLOAD,2023-01-02 08:12:46,15.08847551,0.0002695,53.2196,337.0993,33.0887,327.0273,-3.8447e-05,-9.01e-06,0.0,0 STARLINK-4095,1 53170U 22083AQ  23002.34220990 -.00000901  00000-0 -38447-4 0  9999,2 53170  53.2196 337.0993 0002695  33.0887 327.0273 15.08847551 25958,6917.857,95.437,541.587,537.8580000000002,0.0
53170.0,STARLINK-4095,PAYLOAD,2023-01-03 08:03:34,15.08835662,0.0002661999999999,53.2189,332.6391,28.6002,331.5135,3.2787e-05,2.33e-06,0.0,0 STARLINK-4095,1 53170U 22083AQ  23003.33581634  .00000233  00000-0  32787-4 0  9991,2 53170  53.2189 332.6391 0002662  28.6002 331.5135 15.08835662 26730,6917.894,95.438,541.6,537.9169999999998,0.0
53170.0,STARLINK-4095,PAYLOAD,2023-01-04 01:32:50,15.088215599999998,0.0002336999999999,53.2196,329.3685,35.7725,324.3424,-1.1977e-06,-3.07e-06,0.0,0 STARLINK-4095,1 53170U 22083AQ  23004.06446806 -.00000307  00000-0 -11977-5 0  9996,2 53170  53.2196 329.3685 0002337  35.7725 324.3424 15.08821560 26842,6917.937,95.439,541.418,538.185,0.0
53170.0,STARLINK-4095,PAYLOAD,2023-01-04 07:54:22,15.08836331,0.0002572,53.2198,328.1794,30.88300000000001,329.2313,-5.6521e-05,-1.188e-05,0.0,0 STARLINK-4095,1 53170U 22083AQ  23004.32942289 -.00001188  00000-0 -56521-4 0  9992,2 53170  53.2198 328.1794 0002572  30.8830 329.2313 15.08836331 26883,6917.892,95.438,541.536,537.977,0.0
53170.0,STARLINK-4095,PAYLOAD,2023-01-04 14:15:54,15.08842545,0.0002699,53.22,326.9896,31.0117,329.1034,1.748e-05,-1e-07,0.0,0 STARLINK-4095,1 53170U 22083AQ  23004.59437617 -.00000010  00000-0  17480-4 0  9998,2 53170  53.2200 326.9896 0002699  31.0117 329.1034 15.08842545 26295,6917.873000000001,95.437,541.605,537.87,0.0
53170.0,STARLINK-4095,PAYLOAD,2023-01-05 06:09:44,15.08853121,0.0002484999999999,53.2188,324.017,29.8337,330.2797,0.00011117,1.482e-05,0.0,0 STARLINK-4095,1 53170U 22083AQ  23005.25676350  .00001482  00000-0  11117-3 0  9994,2 53170  53.2188 324.0170 0002485  29.8337 330.2797 15.08853121 27029,6917.84,95.437,541.424,537.986,0.0
53170.0,STARLINK-4095,PAYLOAD,2023-01-05 14:06:39,15.08860145,0.0002673,53.2197,322.5304,30.09,330.0246,0.00016951,2.412e-05,0.0,0 STARLINK-4095,1 53170U 22083AQ  23005.58795401  .00002412  00000-0  16951-3 0  9994,2 53170  53.2197 322.5304 0002673  30.0900 330.0246 15.08860145 26446,6917.819,95.436,541.533,537.835,0.0
53170.0,STARLINK-4095,PAYLOAD,2023-01-06 06:00:32,15.08828966,0.0002653,53.2183,319.5562,27.6822,332.4311,-7.3416e-05,-1.456e-05,0.0,0 STARLINK-4095,1 53170U 22083AQ  23006.25037958 -.00001456  00000-0 -73416-4 0  9994,2 53170  53.2183 319.5562 0002653  27.6822 332.4311 15.08828966 27171,6917.914000000002,95.438,541.614,537.944,0.0
53170.0,STARLINK-4095,PAYLOAD,2023-01-07 05:51:19,15.08839863,0.0002913,53.2179,315.0956,31.0234,329.0929,-0.00018887,-3.293e-05,0.0,0 STARLINK-4095,1 53170U 22083AQ  23007.24397985 -.00003293  00000-0 -18887-3 0  9994,2 53170  53.2179 315.0956 0002913  31.0234 329.0929 15.08839863 27321,6917.880999999999,95.438,541.761,537.731,0.0
53170.0,STARLINK-4095,PAYLOAD,2023-01-07 13:48:14,15.0884966,0.0002945,53.2183,313.612,29.6972,330.4186,-6.8531e-05,-1.3800000000000003e-05,0.0,0 STARLINK-4095,1 53170U 22083AQ  23007.57516910 -.00001380  00000-0 -68531-4 0  9998,2 53170  53.2183 313.6120 0002945  29.6972 330.4186 15.08849660 27372,6917.851,95.437,541.753,537.679,0.0
